#cP2021  1  2  0  0  0.00000000      96 ORBIT IGb14 HLM  IGS
## 2138 518400.00000000   900.00000000 59216 0.0000000000000
+   32   G01G02G03G04G05G06G07G08G09G10G11G12G13G14G15G16G17
+        G18G19G20G21G22G23G24G25G26G27G28G29G30G31G32  0  0
+          0  0  0  0  0  0  0  0  0  0  0  0  0  0  0  0  0
+          0  0  0  0  0  0  0  0  0  0  0  0  0  0  0  0  0
+          0  0  0  0  0  0  0  0  0  0  0  0  0  0  0  0  0
++         2  2  2  2  2  2  1  2  2  2  2  2  1  2  2  2  2
++         2  2  2  2  2  2  1  2  2  2  2  2  2  1  1  0  0
++         0  0  0  0  0  0  0  0  0  0  0  0  0  0  0  0  0
++         0  0  0  0  0  0  0  0  0  0  0  0  0  0  0  0  0
++         0  0  0  0  0  0  0  0  0  0  0  0  0  0  0  0  0
%c G  cc GPS ccc cccc cccc cccc cccc ccccc ccccc ccccc ccccc
%c cc cc ccc ccc cccc cccc cccc cccc ccccc ccccc ccccc ccccc
%f  1.2500000  1.025000000  0.00000000000  0.000000000000000
%f  0.0000000  0.000000000  0.00000000000  0.000000000000000
%i    0    0    0    0      0      0      0      0         0
%i    0    0    0    0      0      0      0      0         0
/* FINAL ORBIT COMBINATION FROM WEIGHTED AVERAGE OF:        
/* cod emr esa gfz grg jpl mit ngs sio                      
/* REFERENCED TO IGS TIME (IGST) AND TO WEIGHTED MEAN POLE: 
/* PCV:IGS14_2136 OL/AL:FES2004  NONE     Y  ORB:CMB CLK:CMB
*  2021  1  2 11 15  0.00000000
PG01 -11643.771084  20735.294321 -11708.566230    786.717238  6  2  4  64       
PG02  21077.681450 -13168.289393  -8709.124368   -561.498292  3  3  4  81       
PG03  -2347.000016  15042.213438 -21850.926912    -45.837518  7  4  4 101       
PG04  -2290.499850  24694.980505  -9434.267947   -169.532196  6  8  5  90       
PG05  21314.959715  -4951.582545  15030.343798    -29.985290  5  4  4  68       
PG06  18453.295228    497.839202 -19050.182598     -4.663947  5  2  2 110       
PG07   3460.607130  16588.730020  20666.351232      6.022261  6  3  3  92       
PG08  -7050.762489  19545.651609  16385.859970     -5.187746  6  4  4  82       
PG09   7252.033677  25464.072953   1884.769072   -308.399879  7  3  3  86       
PG10 -23121.507549 -11894.224845   6173.363221    -30.094876  8  4  4 103       
PG11 -10929.612920  24270.584805   2278.875813    -64.361694  6  5  5 110       
PG12   6928.627308 -13349.325477 -22125.824175     18.468023  6  7  4 105       
PG13  13235.771568 -10421.103391  20367.706542     81.457767  4  4  3  82       
PG14  21329.911757  13810.705015   7731.848191     78.079821  7  8  4  73       
PG15   4858.702326 -20935.249936  15016.604843   -179.153257  5     2  90       
PG16 -22014.335028   1552.303362  14880.154763   -259.242015  6  6  7  89       
PG17  13474.961285  15391.818043 -16510.911668    374.994831  6  4  3  97       
PG18  -4974.140941 -15096.207157  21265.777486    338.018304  7  2  6  81       
PG19  14878.095139   7735.042025 -20899.454222    -57.302935  6  3  5 114       
PG20 -14953.571292 -14787.847128  16314.536765    525.293971  6  3  5  87       
PG21 -17025.936908  19887.845380  -2158.417791     83.152382  5  2  3  71       
PG22 -11409.240231  12705.304165 -20109.841336   -705.269339  5     4  64       
PG23 -15435.671182 -15502.690027  15058.779905    114.048966  9  4  6 104       
PG24  13676.561139 -21489.192667  -6996.205217      4.192203        2  93       
PG25  -8256.992419 -16739.512744 -19249.156874     51.614391  5  5  4  83       
PG26 -26021.661358  -3953.021599   4451.098158     23.763596  7  5  6  98       
PG27 -13387.489563   7155.281235  21605.351656    -47.733903  5  4  4 105       
PG28  22379.152690  13381.765431   5063.823608    635.095505  4  5  1  80       
PG29  -4344.449365 -26158.115207   1023.962455   -268.017803  7  4  3  74       
PG30  13461.012393   8946.774413  21147.421699   -362.450418  5  5  6  61       
PG31 -20382.781848   1380.456430 -17291.189044    -91.445749  4  5  3  55       
PG32 -15159.822298 -14014.409338 -16711.018772     11.932094  5  6  3  70       
*  2021  1  2 11 30  0.00000000
PG01 -12621.201046  21401.968717  -9135.602349    786.711884  6  3  3  39       
PG02  20434.555819 -12094.472502 -11241.105884   -561.502441  3  3  4  88       
PG03  -4734.318228  14354.579442 -21918.013498    -45.846438  7  4  3  94       
PG04  -2768.751295  23545.422715 -11921.399099   -169.534976  6  8  5  92       
PG05  22831.427486  -4364.049464  12866.839205    -29.986414  6  4  4  83       
PG06  16883.706807   2125.968513 -20341.592204     -4.664059  5  3  2 112       
PG07   1738.950849  18046.770461  19572.949147      6.035357  6  3  3  90       
PG08  -7712.547364  17670.167816  18150.298809     -5.189892  5  4  4  77       
PG09   6996.600761  25594.213182   -955.547807   -308.403702  7  3  3  91       
PG10 -22258.181578 -11855.036811   8854.923563    -30.102673  8  4  4 106       
PG11 -11121.218610  23718.226496   4976.282370    -64.352085  6  4  5  96       
PG12   9225.251395 -12474.990546 -21777.908653     18.463287  6  7  4  95       
PG13  13583.132837  -8037.457494  21206.905992     81.461278  3  4  3  78       
PG14  20274.676150  13702.191471  10325.913532     78.086605  7  7  4  77       
PG15   5760.130437 -19238.319554  16848.150426   -179.150974  5  1  1  88       
PG16 -23446.287278    842.941087  12655.971381   -259.247018  6  5  7  84       
PG17  13667.247964  17227.576803 -14467.694761    374.999139  6  5  3  96       
PG18  -3168.842418 -16657.762620  20424.279773    338.021127  6     6  84       
PG19  15120.888696   9984.123264 -19730.273794    -57.298565  7  2  4 113       
PG20 -12977.075674 -14690.795298  17977.550522    525.294159  6  3  5 104       
PG21 -17361.191048  19805.493061    709.685564     83.155045  5  2  3  76       
PG22 -13635.423505  12144.309571 -19037.817874   -705.263578  6  1  4  62       
PG23 -13616.467099 -15200.299067  16991.202614    114.050823  8  3  6 110       
PG24  14353.151112 -21722.835375  -4270.198366      4.190789     1  2  67       
PG25  -6104.097150 -16211.994179 -20456.707009     51.621035  5  4  2  78       
PG26 -26298.019511  -4309.077731   1672.619076     23.768962  7  5  6  97       
PG27 -14029.347118   4718.458530  21895.262462    -47.740953  5  3  5  96       
PG28  21674.936903  13331.985286   7832.196668    635.090664  4  4  1  74       
PG29  -4149.569861 -26146.329403  -1880.718340   -268.024702  7  4  4  76       
PG30  11676.264923  10600.163137  21423.035647   -362.455954  5  4  5  67       
PG31 -18959.811783    -87.691600 -18857.281449    -91.447949  4  5  3  50       
PG32 -15437.317740 -15812.368546 -14763.117922     11.934168  5  6  3  39       
*  2021  1  2 11 45  0.00000000
PG01 -13356.647863  21900.830682  -6403.873706    786.706564  6  4  1  53       
PG02  19673.469734 -10765.117939 -13573.150942   -561.506125  3  4  3  83       
PG03  -7142.769803  13798.389640 -21610.689505    -45.855377  7  3  3  94       
PG04  -3377.565036  22161.790078 -14202.807941   -169.537793  5  8  5 102       
PG05  24121.888101  -3904.628129  10482.080842    -29.987096  6  4  4  86       
PG06  15320.321044   3932.362087 -21281.426934     -4.664173  5  3  3 106       
PG07    185.997752  19490.875391  18147.257000      6.048732  6  2  3  83       
PG08  -8528.763137  15660.590429  19599.550292     -5.191766  5  4  4  78       
PG09   6648.492904  25432.586689  -3779.408028   -308.407542  6  3  3  92       
PG10 -21107.941567 -11798.719065  11386.928365    -30.110446  8  3  4 104       
PG11 -11262.237953  22885.831855   7588.993763    -64.342533  6  3  5  94       
PG12  11511.240251 -11744.888219 -21062.745047     18.458680  6  7  5 101       
PG13  14068.287711  -5602.667454  21676.030507     81.464847  3  5  3  72       
PG14  18941.703085  13573.473251  12742.258189     78.093409  7  7  4  66       
PG15   6814.936381 -17407.965467  18378.143792   -179.148498  5  2     84       
PG16 -24662.025988    296.823171  10216.315074   -259.252084  6  5  7  86       
PG17  13900.719199  18804.580665 -12168.697948    375.003894  6  5  3  90       
PG18  -1528.464346 -18229.990477  19230.766058    338.023947  6     6  86       
PG19  15459.733665  12070.256687 -18230.161069    -57.293770  7  3  4 113       
PG20 -10826.436584 -14676.135863  19332.483483    525.293903  6  3  5 108       
PG21 -17490.884380  19489.227324   3565.352978     83.158256  5  2  3  71       
PG22 -15746.087742  11707.029740 -17631.416369   -705.257580  6  2  4  84       
PG23 -11585.060008 -14954.324396  18631.052735    114.052616  7  2  6 105       
PG24  14822.448563 -21743.383459  -1469.245886      4.190454  3  3  2  77       
PG25  -3811.757398 -15774.672294 -21321.821540     51.627712  5  3  1  69       
PG26 -26283.537257  -4593.377089  -1134.199537     23.774244  7  6  6  95       
PG27 -14804.552598   2312.537589  21802.811745    -47.748058  5  3  5  93       
PG28  20682.706256  13223.013165  10466.798483    635.086236  4  4  1  76       
PG29  -3879.047535 -25826.027606  -4752.958193   -268.031154  7  5  4  67       
PG30   9965.026706  12347.143621  21331.742029   -362.461444  5  4  5  65       
PG31 -17503.674426  -1743.939960 -20105.384942    -91.449738  4  5  3  94       
PG32 -15736.153323 -17368.524619 -12561.596046     11.936277  5  6  3  71       
EOF
